NORAD_CAT_ID,OBJECT_NAME,OBJECT_TYPE,EPOCH,MEAN_MOTION,ECCENTRICITY,INCLINATION,RA_OF_ASC_NODE,ARG_OF_PERICENTER,MEAN_ANOMALY,BSTAR,MEAN_MOTION_DOT,MEAN_MOTION_DDOT,TLE_LINE0,TLE_LINE1,TLE_LINE2,SEMIMAJOR_AXIS,PERIOD,APOGEE,PERIGEE,DECAYED
50179.0,STARLINK-3283,PAYLOAD,2024-06-20 04:47:15,15.08834569,9.6e-05,53.2155,186.0352,84.5528,275.5573,-4.1006e-06,-3.53e-06,0.0,0 STARLINK-3283,1 50179U 21125Z   24172.19948990 -.00000353  00000-0 -41006-5 0  9997,2 50179  53.2155 186.0352 0000960  84.5528 275.5573 15.08834569141387,6917.897,95.438,540.426,539.098,0.0
50179.0,STARLINK-3283,PAYLOAD,2024-06-20 07:58:02,15.08835731,9.66e-05,53.2155,185.4405,84.3143,275.796,2.8825e-06,-2.42e-06,0.0,0 STARLINK-3283,1 50179U 21125Z   24172.33196912 -.00000242  00000-0  28825-5 0  9992,2 50179  53.2155 185.4405 0000966  84.3143 275.7960 15.08835731141896,6917.893,95.438,540.427,539.09,0.0
50179.0,STARLINK-3283,PAYLOAD,2024-06-21 09:24:12,15.08840053,9.94e-05,53.2162,180.6826,80.3012,279.8092,5.1581e-05,5.33e-06,0.0,0 STARLINK-3283,1 50179U 21125Z   24173.39180657  .00000533  00000-0  51581-4 0  9994,2 50179  53.2162 180.6826 0000994  80.3012 279.8092 15.08840053141568,6917.88,95.438,540.433,539.058,0.0
50179.0,STARLINK-3283,PAYLOAD,2024-06-22 04:28:50,15.08833095,9.74e-05,53.2163,177.1145,81.2879,278.8223,4.3621e-05,4.06e-06,0.0,0 STARLINK-3283,1 50179U 21125Z   24174.18669336  .00000406  00000-0  43621-4 0  9993,2 50179  53.2163 177.1145 0000974  81.2879 278.8223 15.08833095141689,6917.901,95.438,540.44,539.093,0.0
50179.0,STARLINK-3283,PAYLOAD,2024-06-22 09:14:59,15.08836251,9.8e-05,53.2161,176.2222,81.8398,278.2705,5.1657e-05,5.34e-06,0.0,0 STARLINK-3283,1 50179U 21125Z   24174.38541174  .00000534  00000-0  51657-4 0  9994,2 50179  53.2161 176.2222 0000980  81.8398 278.2705 15.08836251142207,6917.892,95.438,540.435,539.079,0.0
50179.0,STARLINK-3283,PAYLOAD,2024-06-23 07:30:23,15.08839114,0.0001084,53.2168,172.0588,84.5992,275.5124,3.9025e-05,3.33e-06,0.0,0 STARLINK-3283,1 50179U 21125Z   24175.31277182  .00000333  00000-0  39025-4 0  9995,2 50179  53.2168 172.0588 0001084  84.5992 275.5124 15.08839114141855,6917.883,95.438,540.498,538.998,0.0
50179.0,STARLINK-3283,PAYLOAD,2024-06-24 08:56:33,15.08844736,0.0001065,53.2163,167.3006,84.8574,275.2539,0.00010086,1.318e-05,0.0,0 STARLINK-3283,1 50179U 21125Z   24176.37260544  .00001318  00000-0  10086-3 0  9995,2 50179  53.2163 167.3006 0001065  84.8574 275.2539 15.08844736142012,6917.866,95.437,540.468,538.994,0.0
50179.0,STARLINK-3283,PAYLOAD,2024-06-25 04:01:11,15.08837471,0.0001142,53.2164,163.7306,81.6203,278.4919,-1.6509e-05,-5.51e-06,0.0,0 STARLINK-3283,1 50179U 21125Z   24177.16749417 -.00000551  00000-0 -16509-4 0  9991,2 50179  53.2164 163.7306 0001142  81.6203 278.4919 15.08837471142134,6917.888,95.438,540.543,538.963,0.0
50179.0,STARLINK-3283,PAYLOAD,2024-06-25 05:36:34,15.08838179,0.0001171,53.2162,163.4332,80.0099,280.1025,-9.1613e-06,-4.34e-06,0.0,0 STARLINK-3283,1 50179U 21125Z   24177.23373364 -.00000434  00000-0 -91613-5 0  9993,2 50179  53.2162 163.4332 0001171  80.0099 280.1025 15.08838179142635,6917.886,95.438,540.561,538.941,0.0
50179.0,STARLINK-3283,PAYLOAD,2024-06-26 05:27:20,15.08844664,0.0001181,53.216,158.9674,85.2406,274.8721,6.8985e-05,8.1e-06,0.0,0 STARLINK-3283,1 50179U 21125Z   24178.22732526  .00000810  00000-0  68985-4 0  9993,2 50179  53.2160 158.9674 0001181  85.2406 274.8721 15.08844664142292,6917.866,95.437,540.548,538.914,0.0
50179.0,STARLINK-3283,PAYLOAD,2024-06-27 03:42:45,15.08832143,0.0001282,53.2163,154.8123,99.1332,260.9806,2.2104e-07,-2.84e-06,0.0,0 STARLINK-3283,1 50179U 21125Z   24179.15469773 -.00000284  00000-0  22104-6 0  9998,2 50179  53.2163 154.8123 0001282  99.1332 260.9806 15.08832143142438,6917.904,95.438,540.656,538.883,0.0
50179.0,STARLINK-3283,PAYLOAD,2024-06-27 14:50:27,15.08834026,0.0001313,53.2168,152.7324,101.6548,258.4592,2.7913e-06,-2.43e-06,0.0,0 STARLINK-3283,1 50179U 21125Z   24179.61837833 -.00000243  00000-0  27913-5 0  9992,2 50179  53.2168 152.7324 0001313 101.6548 258.4592 15.08834026142993,6917.899,95.438,540.672,538.855,0.0
50179.0,STARLINK-3283,PAYLOAD,2024-06-28 05:08:56,15.08812475,0.0001505,53.2161,150.0559,106.7122,253.4035,0.00037518,5.684e-05,0.0,0 STARLINK-3283,1 50179U 21125Z   24180.21454066  .00005684  00000-0  37518-3 0  9996,2 50179  53.2161 150.0559 0001505 106.7122 253.4035 15.08812475142591,6917.965,95.439,540.871,538.788,0.0
50179.0,STARLINK-3283,PAYLOAD,2024-06-28 14:41:14,15.08837867,0.00013,53.2164,148.2718,101.1555,258.9583,6.8507e-05,8.03e-06,0.0,0 STARLINK-3283,1 50179U 21125Z   24180.61197660  .00000803  00000-0  68507-4 0  9995,2 50179  53.2164 148.2718 0001300 101.1555 258.9583 15.08837867142659,6917.887,95.438,540.651,538.853,0.0
50179.0,STARLINK-3283,PAYLOAD,2024-06-29 04:59:43,15.08821116,0.0001437,53.2165,145.5968,106.9681,253.1469,0.00031715,4.761e-05,0.0,0 STARLINK-3283,1 50179U 21125Z   24181.20814139  .00004761  00000-0  31715-3 0  9995,2 50179  53.2165 145.5968 0001437 106.9681 253.1469 15.08821116142741,6917.938,95.439,540.797,538.809,0.0
50179.0,STARLINK-3283,PAYLOAD,2024-06-29 06:35:06,15.08841338,0.0001358,53.217,145.2985,97.5382,262.5764,0.00012605,1.719e-05,0.0,0 STARLINK-3283,1 50179U 21125Z   24181.27437545  .00001719  00000-0  12605-3 0  9991,2 50179  53.2170 145.2985 0001358  97.5382 262.5764 15.08841338142759,6917.876,95.437,540.681,538.802,0.0
50179.0,STARLINK-3283,PAYLOAD,2024-06-29 14:32:02,15.08838283,0.0001117,53.2154,143.8108,85.685,274.427,8.1373e-05,1.007e-05,0.0,0 STARLINK-3283,1 50179U 21125Z   24181.60557943  .00001007  00000-0  81373-4 0  9992,2 50179  53.2154 143.8108 0001117  85.6850 274.4270 15.08838283143292,6917.886,95.438,540.523,538.978,0.0
50179.0,STARLINK-3283,PAYLOAD,2024-06-30 04:50:31,15.08829459,0.000144,53.2171,141.1356,87.5004,272.6153,-5.749e-05,-1.203e-05,0.0,0 STARLINK-3283,1 50179U 21125Z   24182.20175410 -.00001203  00000-0 -57490-4 0  9997,2 50179  53.2171 141.1356 0001440  87.5004 272.6153 15.08829459142898,6917.913,95.438,540.774,538.781,0.0
50179.0,STARLINK-3283,PAYLOAD,2024-06-30 14:22:49,15.0883845,0.0001408,53.2174,139.351,85.2269,274.8884,4.4044e-05,4.13e-06,0.0,0 STARLINK-3283,1 50179U 21125Z   24182.59918633  .00000413  00000-0  44044-4 0  9992,2 50179  53.2174 139.3510 0001408  85.2269 274.8884 15.08838450143442,6917.885,95.438,540.724,538.776,0.0
50179.0,STARLINK-3283,PAYLOAD,2024-07-01 04:41:16,15.08854868,0.0001384,53.217,136.6738,80.9163,279.1985,0.00013026,1.787e-05,0.0,0 STARLINK-3283,1 50179U 21125Z   24183.19533392  .00001787  00000-0  13026-3 0  9994,2 50179  53.2170 136.6738 0001384  80.9163 279.1985 15.08854868143045,6917.835,95.437,540.657,538.743,0.0
50179.0,STARLINK-3283,PAYLOAD,2024-07-01 14:13:36,15.08844494,0.0001112,53.2156,134.8862,85.861,274.2509,7.5459e-05,9.13e-06,0.0,0 STARLINK-3283,1 50179U 21125Z   24183.59277895  .00000913  00000-0  75459-4 0  9990,2 50179  53.2156 134.8862 0001112  85.8610 274.2509 15.08844494143599,6917.867,95.437,540.501,538.962,0.0
50179.0,STARLINK-3283,PAYLOAD,2024-07-01 20:35:09,15.08837279,0.0001671,53.2164,133.7013,83.5389,276.5793,0.00021665,3.161e-05,0.0,0 STARLINK-3283,1 50179U 21125Z   24183.85774463  .00003161  00000-0  21665-3 0  9999,2 50179  53.2164 133.7013 0001671  83.5389 276.5793 15.08837279143146,6917.889,95.438,540.91,538.598,0.0
50179.0,STARLINK-3283,PAYLOAD,2024-07-02 14:04:23,15.08842683,0.0001106,53.2135,130.4281,89.3752,270.7367,8.015e-05,9.88e-06,0.0,0 STARLINK-3283,1 50179U 21125Z   24184.58638196  .00000988  00000-0  80150-4 0  9991,2 50179  53.2135 130.4281 0001106  89.3752 270.7367 15.08842683143740,6917.872,95.437,540.502,538.972,0.0
50179.0,STARLINK-3283,PAYLOAD,2024-07-03 02:47:28,15.08842399,0.0001447,53.2161,128.0469,96.0998,264.0159,1.1178e-05,-1.1e-06,0.0,0 STARLINK-3283,1 50179U 21125Z   24185.11630250 -.00000110  00000-0  11178-4 0  9996,2 50179  53.2161 128.0469 0001447  96.0998 264.0159 15.08842399143339,6917.873,95.437,540.739,538.737,0.0
50179.0,STARLINK-3283,PAYLOAD,2024-07-03 05:58:14,15.08846596,0.0001414,53.2166,127.4527,94.7849,265.3305,-2.6468e-06,-3.3e-06,0.0,0 STARLINK-3283,1 50179U 21125Z   24185.24878003 -.00000330  00000-0 -26468-5 0  9994,2 50179  53.2166 127.4527 0001414  94.7849 265.3305 15.08846596143842,6917.86,95.437,540.703,538.747,0.0
50179.0,STARLINK-3283,PAYLOAD,2024-07-04 05:49:01,15.08850544,0.0001392,53.2166,122.9923,103.3457,256.769,7.6594e-05,9.32e-06,0.0,0 STARLINK-3283,1 50179U 21125Z   24186.24237690  .00000932  00000-0  76594-4 0  9996,2 50179  53.2166 122.9923 0001392 103.3457 256.7690 15.08850544143501,6917.848,95.437,540.676,538.75,0.0
50179.0,STARLINK-3283,PAYLOAD,2024-07-04 20:07:30,15.08839073,0.0001435,53.216,120.3148,100.8824,259.233,8.3212e-05,1.037e-05,0.0,0 STARLINK-3283,1 50179U 21125Z   24186.83854311  .00001037  00000-0  83212-4 0  9998,2 50179  53.2160 120.3148 0001435 100.8824 259.2330 15.08839073143596,6917.883,95.438,540.741,538.756,0.0
50179.0,STARLINK-3283,PAYLOAD,2024-07-04 23:18:16,15.08832378,0.0001408,53.2154,119.7203,99.6886,260.4265,-1.2329e-05,-4.84e-06,0.0,0 STARLINK-3283,1 50179U 21125Z   24186.97102768 -.00000484  00000-0 -12329-4 0  9993,2 50179  53.2154 119.7203 0001408  99.6886 260.4265 15.08832378144106,6917.904,95.438,540.743,538.795,0.0
50179.0,STARLINK-3283,PAYLOAD,2024-07-05 02:29:03,15.08832076,0.0001233,53.2161,119.1268,87.1654,272.9479,-2.5137e-05,-6.88e-06,0.0,0 STARLINK-3283,1 50179U 21125Z   24187.10351191 -.00000688  00000-0 -25137-4 0  9992,2 50179  53.2161 119.1268 0001233  87.1654 272.9479 15.08832076143637,6917.905,95.438,540.623,538.917,0.0
50179.0,STARLINK-3283,PAYLOAD,2024-07-05 12:01:22,15.08816208,0.0001384,53.2164,117.3437,96.0871,264.0279,0.0002494,3.681e-05,0.0,0 STARLINK-3283,1 50179U 21125Z   24187.50095920  .00003681  00000-0  24940-3 0  9995,2 50179  53.2164 117.3437 0001384  96.0871 264.0279 15.08816208143690,6917.953,95.439,540.776,538.861,0.0
